[{"OBJECT_NAME":"TEVEL2-4","OBJECT_ID":"2025-052D","EPOCH":"2026-03-09T16:39:37.129536","MEAN_MOTION":15.30925813,"ECCENTRICITY":0.0004733,"INCLINATION":97.4009,"RA_OF_ASC_NODE":325.1237,"ARG_OF_PERICENTER":95.3468,"MEAN_ANOMALY":264.8313,"EPHEMERIS_TYPE":0,"CLASSIFICATION_TYPE":"U","NORAD_CAT_ID":63213,"ELEMENT_SET_NO":999,"REV_AT_EPOCH":5487,"BSTAR":0.00070362503,"MEAN_MOTION_DOT":0.0002099,"MEAN_MOTION_DDOT":0},{"OBJECT_NAME":"STARLINK-35046","OBJECT_ID":"2025-212AB","EPOCH":"2026-03-09T01:03:36.295776","MEAN_MOTION":15.30193926,"ECCENTRICITY":0.00011867,"INCLINATION":53.1616,"RA_OF_ASC_NODE":348.7454,"ARG_OF_PERICENTER":87.8,"MEAN_ANOMALY":272.3137,"EPHEMERIS_TYPE":0,"CLASSIFICATION_TYPE":"U","NORAD_CAT_ID":65701,"ELEMENT_SET_NO":999,"REV_AT_EPOCH":2714,"BSTAR":0.00069176417,"MEAN_MOTION_DOT":0.00020181,"MEAN_MOTION_DDOT":0}]
