TEVEL2-4                
1 63213U 25052D   26068.69417973  .00020990  00000+0  70363-3 0  9998
2 63213  97.4009 325.1237 0004733  95.3468 264.8313 15.30925813 54879
STARLINK-35046          
1 65701U 25212AB  26068.04417009  .00020181  00000+0  69176-3 0  9991
2 65701  53.1616 348.7454 0001186  87.8000 272.3137 15.30193926 27145
